<?xml version="1.0" encoding="UTF-8"?>
<gpx version="1.1" creator="GPS Visualizer https://www.gpsvisualizer.com/" schemaLocation="http://www.topografix.com/GPX/1/1 http://www.topografix.com/GPX/1/1/gpx.xsd http://www.garmin.com/xmlschemas/TrackPointExtension/v2 http://www.garmin.com/xmlschemas/TrackPointExtensionv2.xsd" xmlns="http://www.topografix.com/GPX/1/1" xmlns:xsi="http://www.w3.org/2001/XMLSchema-instance" xsi:schemaLocation="http://www.topografix.com/GPX/1/1 http://www.topografix.com/GPX/1/1/gpx.xsd http://www.garmin.com/xmlschemas/GpxExtensions/v3 http://www.garmin.com/xmlschemas/GpxExtensionsv3.xsd http://www.garmin.com/xmlschemas/TrackPointExtension/v1 http://www.garmin.com/xmlschemas/TrackPointExtensionv1.xsd http://www.garmin.com/xmlschemas/PowerExtension/v1 http://www.garmin.com/xmlschemas/PowerExtensionv1.xsd http://www.topografix.com/GPX/gpx_style/0/2 http://www.topografix.com/GPX/gpx_style/0/2/gpx_style.xsd" xmlns:gpxtpx="http://www.garmin.com/xmlschemas/TrackPointExtension/v1" xmlns:gpxx="http://www.garmin.com/xmlschemas/GpxExtensions/v3" xmlns:gpxpx="http://www.garmin.com/xmlschemas/PowerExtension/v1" xmlns:gpx_style="http://www.topografix.com/GPX/gpx_style/0/2">
  <metadata>
    <name>Movistar MMM25</name>
    <author>
      <name>gpx.studio</name>
      <link href="https://gpx.studio"/>
    </author>
  </metadata>
  <trk>
    <name>MMMM2025  ACTUALIZADA paso Centro</name>
    <trkseg>
      <trkpt lat="40.424444733601035" lon="-3.690599231869129">
        <ele>657.0334802490727</ele>
      </trkpt>
      <trkpt lat="40.424807426718104" lon="-3.6904374228940924">
        <ele>655.0322493395475</ele>
      </trkpt>
      <trkpt lat="40.424807426718104" lon="-3.6904374228940924">
        <ele>655.0322493395475</ele>
      </trkpt>
      <trkpt lat="40.42503667535402" lon="-3.69030258178978">
        <ele>662.0380101003917</ele>
      </trkpt>
      <trkpt lat="40.42503667535402" lon="-3.69030258178978">
        <ele>662.0380101003917</ele>
      </trkpt>
      <trkpt lat="40.425484700052806" lon="-3.6902522519268075">
        <ele>676.0041994829857</ele>
      </trkpt>
      <trkpt lat="40.425496351999385" lon="-3.690250942979162">
        <ele>675.9599868414057</ele>
      </trkpt>
      <trkpt lat="40.425496351999385" lon="-3.690250942979162">
        <ele>675.9599868414057</ele>
      </trkpt>
      <trkpt lat="40.4257119119639" lon="-3.690246448275957">
        <ele>675.9230253046424</ele>
      </trkpt>
      <trkpt lat="40.4261536606684" lon="-3.690136125331078">
        <ele>672.3705995244686</ele>
      </trkpt>
      <trkpt lat="40.426595409372894" lon="-3.6900258023861983">
        <ele>669.6704873564095</ele>
      </trkpt>
      <trkpt lat="40.42703715807738" lon="-3.689915479441319">
        <ele>667.4215948539293</ele>
      </trkpt>
      <trkpt lat="40.42747890678188" lon="-3.6898051564964396">
        <ele>665.034894430477</ele>
      </trkpt>
      <trkpt lat="40.427920655486375" lon="-3.6896948335515605">
        <ele>671.9015437322674</ele>
      </trkpt>
      <trkpt lat="40.42836240419087" lon="-3.689584510606681">
        <ele>673.6045315495729</ele>
      </trkpt>
      <trkpt lat="40.42880415289536" lon="-3.689474187661802">
        <ele>671.3844281761917</ele>
      </trkpt>
      <trkpt lat="40.429245901599856" lon="-3.6893638647169222">
        <ele>666.1805507783035</ele>
      </trkpt>
      <trkpt lat="40.42968765030435" lon="-3.689253541772043">
        <ele>666.1875005749655</ele>
      </trkpt>
      <trkpt lat="40.43012939900885" lon="-3.6891432188271636">
        <ele>667.8174812617488</ele>
      </trkpt>
      <trkpt lat="40.43057114771334" lon="-3.6890328958822844">
        <ele>667.4733357700527</ele>
      </trkpt>
      <trkpt lat="40.43101289641783" lon="-3.688922572937405">
        <ele>671.4609047674587</ele>
      </trkpt>
      <trkpt lat="40.43145464512233" lon="-3.6888122499925258">
        <ele>673.9052211492382</ele>
      </trkpt>
      <trkpt lat="40.431896393826825" lon="-3.6887019270476467">
        <ele>674.426655860505</ele>
      </trkpt>
      <trkpt lat="40.43233814253132" lon="-3.688591604102767">
        <ele>670.6858329673775</ele>
      </trkpt>
      <trkpt lat="40.43277989123581" lon="-3.688481281157888">
        <ele>669.3165154581608</ele>
      </trkpt>
      <trkpt lat="40.43322163994031" lon="-3.6883709582130084">
        <ele>672.6643509566895</ele>
      </trkpt>
      <trkpt lat="40.433256645" lon="-3.688362216">
        <ele>672.9387362039121</ele>
      </trkpt>
      <trkpt lat="40.433256645" lon="-3.688362216">
        <ele>672.9387362039121</ele>
      </trkpt>
      <trkpt lat="40.434364295" lon="-3.688571192">
        <ele>671.8278697055257</ele>
      </trkpt>
      <trkpt lat="40.434845129" lon="-3.688598752">
        <ele>672.5941714535008</ele>
      </trkpt>
      <trkpt lat="40.435231642" lon="-3.688571854">
        <ele>671.9116315456109</ele>
      </trkpt>
      <trkpt lat="40.435353981" lon="-3.688617768">
        <ele>672.6849890769694</ele>
      </trkpt>
      <trkpt lat="40.435854426" lon="-3.689136711">
        <ele>678.6195277038731</ele>
      </trkpt>
      <trkpt lat="40.436394818" lon="-3.689525026">
        <ele>682.7361263212521</ele>
      </trkpt>
      <trkpt lat="40.437620003" lon="-3.69031083">
        <ele>677.3445062906557</ele>
      </trkpt>
      <trkpt lat="40.438038964" lon="-3.690574665">
        <ele>677.1366803269203</ele>
      </trkpt>
      <trkpt lat="40.438517712" lon="-3.690781393">
        <ele>681.6945779230007</ele>
      </trkpt>
      <trkpt lat="40.440706057" lon="-3.691472235">
        <ele>675.5368305377207</ele>
      </trkpt>
      <trkpt lat="40.441311972" lon="-3.69151153">
        <ele>681.4977405092405</ele>
      </trkpt>
      <trkpt lat="40.441813562" lon="-3.6915366">
        <ele>678.458232975206</ele>
      </trkpt>
      <trkpt lat="40.444334449" lon="-3.69131009">
        <ele>691.4728844068321</ele>
      </trkpt>
      <trkpt lat="40.445184358" lon="-3.691204114">
        <ele>693.1429471182905</ele>
      </trkpt>
      <trkpt lat="40.446003741" lon="-3.691129266">
        <ele>689.6670462608677</ele>
      </trkpt>
      <trkpt lat="40.446811592" lon="-3.691096776">
        <ele>688.3121662020001</ele>
      </trkpt>
      <trkpt lat="40.447565387" lon="-3.691030283">
        <ele>726.6974852139685</ele>
      </trkpt>
      <trkpt lat="40.448229419" lon="-3.690966261">
        <ele>711.1561178768499</ele>
      </trkpt>
      <trkpt lat="40.450850136" lon="-3.690712026">
        <ele>722.8595104445384</ele>
      </trkpt>
      <trkpt lat="40.451448277" lon="-3.6906602">
        <ele>720.895264987229</ele>
      </trkpt>
      <trkpt lat="40.451855853" lon="-3.690629684">
        <ele>714.8985229626288</ele>
      </trkpt>
      <trkpt lat="40.452415999" lon="-3.690592027">
        <ele>700.4023128965181</ele>
      </trkpt>
      <trkpt lat="40.453287895" lon="-3.690485603">
        <ele>708.5566755410524</ele>
      </trkpt>
      <trkpt lat="40.454762995" lon="-3.690355351">
        <ele>717.028372987058</ele>
      </trkpt>
      <trkpt lat="40.456169864" lon="-3.690222083">
        <ele>718.5708008743118</ele>
      </trkpt>
      <trkpt lat="40.456478398" lon="-3.690182403">
        <ele>720.9263711695495</ele>
      </trkpt>
      <trkpt lat="40.458302153" lon="-3.690005433">
        <ele>719.6709755906397</ele>
      </trkpt>
      <trkpt lat="40.459159848" lon="-3.689941859">
        <ele>722.429497538673</ele>
      </trkpt>
      <trkpt lat="40.459714023" lon="-3.689863896">
        <ele>737.4034058021294</ele>
      </trkpt>
      <trkpt lat="40.462521501" lon="-3.689608101">
        <ele>740.8737386595615</ele>
      </trkpt>
      <trkpt lat="40.463052229" lon="-3.689387665">
        <ele>753.3430476094602</ele>
      </trkpt>
      <trkpt lat="40.463268181" lon="-3.689294893">
        <ele>751.1013291717273</ele>
      </trkpt>
      <trkpt lat="40.464221132" lon="-3.689063128">
        <ele>733.7434179195213</ele>
      </trkpt>
      <trkpt lat="40.464693228" lon="-3.689034429">
        <ele>728.7545379267343</ele>
      </trkpt>
      <trkpt lat="40.465338578" lon="-3.689022601">
        <ele>728.0937888155592</ele>
      </trkpt>
      <trkpt lat="40.46567543" lon="-3.688938641">
        <ele>729.3335857674492</ele>
      </trkpt>
      <trkpt lat="40.465889673" lon="-3.688782458">
        <ele>737.0916964878901</ele>
      </trkpt>
      <trkpt lat="40.466220282" lon="-3.688868969">
        <ele>740.6772593051318</ele>
      </trkpt>
      <trkpt lat="40.466368079" lon="-3.689179107">
        <ele>751.4795001382336</ele>
      </trkpt>
      <trkpt lat="40.466416052" lon="-3.689498749">
        <ele>753.4305122364453</ele>
      </trkpt>
      <trkpt lat="40.466252935" lon="-3.689804079">
        <ele>745.8461335813955</ele>
      </trkpt>
      <trkpt lat="40.465915357" lon="-3.689961998">
        <ele>745.250073388022</ele>
      </trkpt>
      <trkpt lat="40.465584881" lon="-3.691059524">
        <ele>739.6208374205352</ele>
      </trkpt>
      <trkpt lat="40.465502313" lon="-3.691522253">
        <ele>738.3651862728767</ele>
      </trkpt>
      <trkpt lat="40.465407979" lon="-3.692312585">
        <ele>739.5043449888078</ele>
      </trkpt>
      <trkpt lat="40.465108315" lon="-3.693488866">
        <ele>739.2575547547758</ele>
      </trkpt>
      <trkpt lat="40.464885571" lon="-3.694143595">
        <ele>736.2212999697823</ele>
      </trkpt>
      <trkpt lat="40.464412901" lon="-3.695407082">
        <ele>736.8453166520235</ele>
      </trkpt>
      <trkpt lat="40.463922868" lon="-3.695990251">
        <ele>734.6164155727955</ele>
      </trkpt>
      <trkpt lat="40.463283721" lon="-3.696588349">
        <ele>731.0986503211088</ele>
      </trkpt>
      <trkpt lat="40.462719886" lon="-3.697127367">
        <ele>732.1155400936111</ele>
      </trkpt>
      <trkpt lat="40.461541917" lon="-3.697858474">
        <ele>726.2901786713435</ele>
      </trkpt>
      <trkpt lat="40.460839438" lon="-3.698212976">
        <ele>722.3726401779345</ele>
      </trkpt>
      <trkpt lat="40.460517327" lon="-3.698443736">
        <ele>723.088522480056</ele>
      </trkpt>
      <trkpt lat="40.45880394" lon="-3.700300798">
        <ele>726.9940555638116</ele>
      </trkpt>
      <trkpt lat="40.458006908" lon="-3.701147581">
        <ele>731.4319439515477</ele>
      </trkpt>
      <trkpt lat="40.456526503" lon="-3.702144312">
        <ele>731.0859216347583</ele>
      </trkpt>
      <trkpt lat="40.454698423" lon="-3.70269905">
        <ele>722.0978419129284</ele>
      </trkpt>
      <trkpt lat="40.453057279" lon="-3.703027853">
        <ele>722.7775886006762</ele>
      </trkpt>
      <trkpt lat="40.45200398" lon="-3.703134959">
        <ele>724.4002156867884</ele>
      </trkpt>
      <trkpt lat="40.45007993" lon="-3.703485473">
        <ele>717.3630393893924</ele>
      </trkpt>
      <trkpt lat="40.448530582" lon="-3.703679287">
        <ele>718.5565221739006</ele>
      </trkpt>
      <trkpt lat="40.447803199" lon="-3.703750008">
        <ele>723.377273160686</ele>
      </trkpt>
      <trkpt lat="40.447482537" lon="-3.703799152">
        <ele>728.0631583341401</ele>
      </trkpt>
      <trkpt lat="40.447236419" lon="-3.703641056">
        <ele>726.424715285004</ele>
      </trkpt>
      <trkpt lat="40.447033747" lon="-3.703570518">
        <ele>721.0105204937929</ele>
      </trkpt>
      <trkpt lat="40.446889649" lon="-3.703599217">
        <ele>716.9430938922081</ele>
      </trkpt>
      <trkpt lat="40.446763902" lon="-3.703629304">
        <ele>714.5454813940318</ele>
      </trkpt>
      <trkpt lat="40.446724562" lon="-3.703549659">
        <ele>714.6699580521894</ele>
      </trkpt>
      <trkpt lat="40.446708411" lon="-3.703324995">
        <ele>716.3737853109548</ele>
      </trkpt>
      <trkpt lat="40.44665573" lon="-3.702374241">
        <ele>720.0531559455061</ele>
      </trkpt>
      <trkpt lat="40.446597675" lon="-3.701291993">
        <ele>717.6011045510887</ele>
      </trkpt>
      <trkpt lat="40.446570996" lon="-3.700476352">
        <ele>712.5205567882635</ele>
      </trkpt>
      <trkpt lat="40.446537037" lon="-3.700028643">
        <ele>710.1470986852429</ele>
      </trkpt>
      <trkpt lat="40.446525004" lon="-3.698765925">
        <ele>710.6797456216818</ele>
      </trkpt>
      <trkpt lat="40.446477123" lon="-3.697459279">
        <ele>705.1620962580297</ele>
      </trkpt>
      <trkpt lat="40.446444188" lon="-3.696432339">
        <ele>708.2044657650264</ele>
      </trkpt>
      <trkpt lat="40.44634783" lon="-3.695016698">
        <ele>709.1485567860708</ele>
      </trkpt>
      <trkpt lat="40.446294789" lon="-3.69327205">
        <ele>704.3342721452016</ele>
      </trkpt>
      <trkpt lat="40.446192803" lon="-3.691625657">
        <ele>687.6653675729888</ele>
      </trkpt>
      <trkpt lat="40.446168064" lon="-3.690411187">
        <ele>694.2758312373983</ele>
      </trkpt>
      <trkpt lat="40.446068993" lon="-3.689262941">
        <ele>697.0340026691308</ele>
      </trkpt>
      <trkpt lat="40.445985625" lon="-3.687729003">
        <ele>701.3711087470875</ele>
      </trkpt>
      <trkpt lat="40.445961719" lon="-3.686830876">
        <ele>700.9880818381907</ele>
      </trkpt>
      <trkpt lat="40.445909305" lon="-3.686448933">
        <ele>702.663509854342</ele>
      </trkpt>
      <trkpt lat="40.445656024" lon="-3.686070175">
        <ele>702.289516814543</ele>
      </trkpt>
      <trkpt lat="40.445386262" lon="-3.685886193">
        <ele>700.5990317107803</ele>
      </trkpt>
      <trkpt lat="40.445133796" lon="-3.685769569">
        <ele>698.0311625944464</ele>
      </trkpt>
      <trkpt lat="40.444958794" lon="-3.685592015">
        <ele>697.5794789957822</ele>
      </trkpt>
      <trkpt lat="40.444863773" lon="-3.685401617">
        <ele>698.7071297492375</ele>
      </trkpt>
      <trkpt lat="40.444533173" lon="-3.684989443">
        <ele>704.1732628964365</ele>
      </trkpt>
      <trkpt lat="40.444142274" lon="-3.684638296">
        <ele>706.4234804997689</ele>
      </trkpt>
      <trkpt lat="40.443663331" lon="-3.684111666">
        <ele>706.0383711040487</ele>
      </trkpt>
      <trkpt lat="40.443208151" lon="-3.683604868">
        <ele>703.0412342504152</ele>
      </trkpt>
      <trkpt lat="40.442831227" lon="-3.68320293">
        <ele>700.4418331256601</ele>
      </trkpt>
      <trkpt lat="40.442643989" lon="-3.682979365">
        <ele>700.7024705525027</ele>
      </trkpt>
      <trkpt lat="40.442312752" lon="-3.682628953">
        <ele>702.4206189254076</ele>
      </trkpt>
      <trkpt lat="40.442107055" lon="-3.682437782">
        <ele>701.4544335369897</ele>
      </trkpt>
      <trkpt lat="40.441789265" lon="-3.682088527">
        <ele>701.9622753669005</ele>
      </trkpt>
      <trkpt lat="40.441436076" lon="-3.681719769">
        <ele>701.7590700428249</ele>
      </trkpt>
      <trkpt lat="40.441050269" lon="-3.681273841">
        <ele>696.0106107808057</ele>
      </trkpt>
      <trkpt lat="40.440675967" lon="-3.680907663">
        <ele>695.2990947184164</ele>
      </trkpt>
      <trkpt lat="40.440454044" lon="-3.680637849">
        <ele>694.6275751722493</ele>
      </trkpt>
      <trkpt lat="40.439307634" lon="-3.679494291">
        <ele>697.2899659317346</ele>
      </trkpt>
      <trkpt lat="40.439043843" lon="-3.679204128">
        <ele>696.4647682310928</ele>
      </trkpt>
      <trkpt lat="40.438237355" lon="-3.678331679">
        <ele>700.3894701588234</ele>
      </trkpt>
      <trkpt lat="40.437828495" lon="-3.677873965">
        <ele>701.3513078612873</ele>
      </trkpt>
      <trkpt lat="40.437645533" lon="-3.677654346">
        <ele>704.4973401008805</ele>
      </trkpt>
      <trkpt lat="40.437091523" lon="-3.677077919">
        <ele>715.1497902343057</ele>
      </trkpt>
      <trkpt lat="40.436922018" lon="-3.676888063">
        <ele>714.5226498085086</ele>
      </trkpt>
      <trkpt lat="40.43567301" lon="-3.67566701">
        <ele>711.4290235294649</ele>
      </trkpt>
      <trkpt lat="40.435078257" lon="-3.675035164">
        <ele>708.9888449103969</ele>
      </trkpt>
      <trkpt lat="40.434620256" lon="-3.674527106">
        <ele>709.6078635105869</ele>
      </trkpt>
      <trkpt lat="40.434241653" lon="-3.674188388">
        <ele>711.3498510908581</ele>
      </trkpt>
      <trkpt lat="40.433612295" lon="-3.673509729">
        <ele>705.5565751459926</ele>
      </trkpt>
      <trkpt lat="40.432995001" lon="-3.673021866">
        <ele>701.41767622203</ele>
      </trkpt>
      <trkpt lat="40.432760035" lon="-3.672783786">
        <ele>700.8441573150084</ele>
      </trkpt>
      <trkpt lat="40.432750159" lon="-3.672776471">
        <ele>700.8102891107334</ele>
      </trkpt>
      <trkpt lat="40.431748048" lon="-3.671914793">
        <ele>705.1213123787956</ele>
      </trkpt>
      <trkpt lat="40.431251124" lon="-3.671498246">
        <ele>701.2047936665582</ele>
      </trkpt>
      <trkpt lat="40.430531943" lon="-3.670846583">
        <ele>698.0932017419261</ele>
      </trkpt>
      <trkpt lat="40.430058632" lon="-3.670414878">
        <ele>694.764748949563</ele>
      </trkpt>
      <trkpt lat="40.428042378" lon="-3.668767">
        <ele>687.4682743005296</ele>
      </trkpt>
      <trkpt lat="40.427707737" lon="-3.668420528">
        <ele>691.022732541245</ele>
      </trkpt>
      <trkpt lat="40.427707737" lon="-3.668420528">
        <ele>691.022732541245</ele>
      </trkpt>
      <trkpt lat="40.42725832193202" lon="-3.668440026104096">
        <ele>691.4006108596695</ele>
      </trkpt>
      <trkpt lat="40.42714228908571" lon="-3.668445060248871">
        <ele>692.2853079323842</ele>
      </trkpt>
      <trkpt lat="40.42714228908571" lon="-3.668445060248871">
        <ele>692.2853079323842</ele>
      </trkpt>
      <trkpt lat="40.426694435566276" lon="-3.6684979562740483">
        <ele>696.2000000000007</ele>
      </trkpt>
      <trkpt lat="40.42624658204685" lon="-3.6685508522992256">
        <ele>694.2388392861122</ele>
      </trkpt>
      <trkpt lat="40.42579872852742" lon="-3.668603748324403">
        <ele>690.638599762921</ele>
      </trkpt>
      <trkpt lat="40.425350875007986" lon="-3.6686566443495803">
        <ele>692.3906399098704</ele>
      </trkpt>
      <trkpt lat="40.42490302148856" lon="-3.6687095403747576">
        <ele>696.553269411345</ele>
      </trkpt>
      <trkpt lat="40.42445516796913" lon="-3.6687624363999345">
        <ele>686.5191111564179</ele>
      </trkpt>
      <trkpt lat="40.424007314449696" lon="-3.668815332425112">
        <ele>684.7097108163922</ele>
      </trkpt>
      <trkpt lat="40.423559460930264" lon="-3.668868228450289">
        <ele>681.5441987606982</ele>
      </trkpt>
      <trkpt lat="40.42311160741084" lon="-3.6689211244754665">
        <ele>677.9592885447641</ele>
      </trkpt>
      <trkpt lat="40.422663753891406" lon="-3.668974020500644">
        <ele>678.4569289639195</ele>
      </trkpt>
      <trkpt lat="40.422215900371974" lon="-3.669026916525821">
        <ele>676.4900613530316</ele>
      </trkpt>
      <trkpt lat="40.42176804685255" lon="-3.6690798125509985">
        <ele>673.2925397621015</ele>
      </trkpt>
      <trkpt lat="40.42133183175821" lon="-3.6691313339605927">
        <ele>675.4826583682311</ele>
      </trkpt>
      <trkpt lat="40.42133183175821" lon="-3.6691313339605927">
        <ele>675.4826583682311</ele>
      </trkpt>
      <trkpt lat="40.42126058576642" lon="-3.669242158270009">
        <ele>676.9961450236445</ele>
      </trkpt>
      <trkpt lat="40.421286497790206" lon="-3.669831828276181">
        <ele>681.7110926790629</ele>
      </trkpt>
      <trkpt lat="40.42131240981399" lon="-3.6704214982823524">
        <ele>685.6935471084212</ele>
      </trkpt>
      <trkpt lat="40.42133832183778" lon="-3.671011168288524">
        <ele>686.0666770019727</ele>
      </trkpt>
      <trkpt lat="40.42136423386157" lon="-3.671600838294695">
        <ele>687.3064731813745</ele>
      </trkpt>
      <trkpt lat="40.42139014588535" lon="-3.672190508300867">
        <ele>685.8080389030987</ele>
      </trkpt>
      <trkpt lat="40.421416057909134" lon="-3.6727801783070384">
        <ele>689.4846681278133</ele>
      </trkpt>
      <trkpt lat="40.42144196993292" lon="-3.67336984831321">
        <ele>697.4342584425126</ele>
      </trkpt>
      <trkpt lat="40.42146788195671" lon="-3.6739595183193816">
        <ele>699.3247834788802</ele>
      </trkpt>
      <trkpt lat="40.421493793980495" lon="-3.674549188325553">
        <ele>699.1811958489947</ele>
      </trkpt>
      <trkpt lat="40.42151970600428" lon="-3.675138858331725">
        <ele>700.4629397088145</ele>
      </trkpt>
      <trkpt lat="40.42154561802807" lon="-3.6757285283378964">
        <ele>698.4697294817599</ele>
      </trkpt>
      <trkpt lat="40.42157153005186" lon="-3.6763181983440676">
        <ele>696.436562843877</ele>
      </trkpt>
      <trkpt lat="40.42159744207564" lon="-3.676907868350239">
        <ele>695.7081610702452</ele>
      </trkpt>
      <trkpt lat="40.421623354099424" lon="-3.677497538356411">
        <ele>700.1053154912502</ele>
      </trkpt>
      <trkpt lat="40.42164926612321" lon="-3.6780872083625824">
        <ele>700.449317745518</ele>
      </trkpt>
      <trkpt lat="40.421675178147" lon="-3.678676878368754">
        <ele>700.3719221100108</ele>
      </trkpt>
      <trkpt lat="40.421701090170785" lon="-3.6792665483749256">
        <ele>700.1557672567251</ele>
      </trkpt>
      <trkpt lat="40.42170827" lon="-3.679429937">
        <ele>700.6934208024999</ele>
      </trkpt>
      <trkpt lat="40.42170827" lon="-3.679429937">
        <ele>700.6934208024999</ele>
      </trkpt>
      <trkpt lat="40.421664662" lon="-3.679930201">
        <ele>698.2255436419069</ele>
      </trkpt>
      <trkpt lat="40.421533498" lon="-3.680866696">
        <ele>688.9154084546468</ele>
      </trkpt>
      <trkpt lat="40.42126218" lon="-3.681902373">
        <ele>680.1545086960989</ele>
      </trkpt>
      <trkpt lat="40.421127283" lon="-3.682539455">
        <ele>682.2969152521717</ele>
      </trkpt>
      <trkpt lat="40.420976023" lon="-3.683343467">
        <ele>678.4959403408561</ele>
      </trkpt>
      <trkpt lat="40.420859959" lon="-3.684080174">
        <ele>672.9274106439908</ele>
      </trkpt>
      <trkpt lat="40.420781069" lon="-3.684460157">
        <ele>673.8987621238001</ele>
      </trkpt>
      <trkpt lat="40.42068572" lon="-3.68499257">
        <ele>678.1767110827715</ele>
      </trkpt>
      <trkpt lat="40.420533846" lon="-3.685724426">
        <ele>673.5967192231258</ele>
      </trkpt>
      <trkpt lat="40.420368637" lon="-3.686433149">
        <ele>673.8543922435964</ele>
      </trkpt>
      <trkpt lat="40.420177001" lon="-3.687307808">
        <ele>669.8179911291937</ele>
      </trkpt>
      <trkpt lat="40.42004986" lon="-3.687816384">
        <ele>665.2866635010625</ele>
      </trkpt>
      <trkpt lat="40.419996203" lon="-3.688041913">
        <ele>662.7076419571503</ele>
      </trkpt>
      <trkpt lat="40.419797749" lon="-3.688302084">
        <ele>661.0267970212038</ele>
      </trkpt>
      <trkpt lat="40.419793456" lon="-3.688325453">
        <ele>661.0966012367917</ele>
      </trkpt>
      <trkpt lat="40.419784397" lon="-3.688347853">
        <ele>661.2347990854871</ele>
      </trkpt>
      <trkpt lat="40.419684242" lon="-3.688550036">
        <ele>663.315379830218</ele>
      </trkpt>
      <trkpt lat="40.419684379" lon="-3.688556129">
        <ele>663.3567150339961</ele>
      </trkpt>
      <trkpt lat="40.419684859" lon="-3.688792469">
        <ele>665.2365667206296</ele>
      </trkpt>
      <trkpt lat="40.419727435" lon="-3.689003684">
        <ele>666.5200065109887</ele>
      </trkpt>
      <trkpt lat="40.41997728" lon="-3.689125972">
        <ele>665.9233817511246</ele>
      </trkpt>
      <trkpt lat="40.420145762" lon="-3.689113897">
        <ele>666.6506506233129</ele>
      </trkpt>
      <trkpt lat="40.420256965" lon="-3.688909171">
        <ele>667.2245725872938</ele>
      </trkpt>
      <trkpt lat="40.42040036" lon="-3.688683149">
        <ele>668.9352364521247</ele>
      </trkpt>
      <trkpt lat="40.420530447" lon="-3.688592761">
        <ele>671.0901693261272</ele>
      </trkpt>
      <trkpt lat="40.42182467" lon="-3.688462931">
        <ele>676.6560217608002</ele>
      </trkpt>
      <trkpt lat="40.42284814" lon="-3.688239488">
        <ele>670.5958672790639</ele>
      </trkpt>
      <trkpt lat="40.424026851" lon="-3.688080302">
        <ele>673.3310613352344</ele>
      </trkpt>
      <trkpt lat="40.424902682" lon="-3.687893283">
        <ele>666.5330564438843</ele>
      </trkpt>
      <trkpt lat="40.42561576" lon="-3.687797645">
        <ele>675.38105348341</ele>
      </trkpt>
      <trkpt lat="40.426478791" lon="-3.687604956">
        <ele>683.6968678174509</ele>
      </trkpt>
      <trkpt lat="40.427238951" lon="-3.687437142">
        <ele>685.2766783905051</ele>
      </trkpt>
      <trkpt lat="40.428984262" lon="-3.687132921">
        <ele>680.4296465727205</ele>
      </trkpt>
      <trkpt lat="40.430408857" lon="-3.686889118">
        <ele>678.7573880555815</ele>
      </trkpt>
      <trkpt lat="40.431613858" lon="-3.686733287">
        <ele>683.3064728798331</ele>
      </trkpt>
      <trkpt lat="40.43227968" lon="-3.686702219">
        <ele>690.3627386055891</ele>
      </trkpt>
      <trkpt lat="40.432778377" lon="-3.686612779">
        <ele>687.0014403627446</ele>
      </trkpt>
      <trkpt lat="40.432984058" lon="-3.686666243">
        <ele>682.9312489266761</ele>
      </trkpt>
      <trkpt lat="40.43304406" lon="-3.687237438">
        <ele>676.5962092514578</ele>
      </trkpt>
      <trkpt lat="40.432987266" lon="-3.690274683">
        <ele>678.425642208361</ele>
      </trkpt>
      <trkpt lat="40.432986647" lon="-3.691055663">
        <ele>679.925977551143</ele>
      </trkpt>
      <trkpt lat="40.432854377" lon="-3.691138685">
        <ele>678.8313220609916</ele>
      </trkpt>
      <trkpt lat="40.43219098" lon="-3.691680751">
        <ele>682.8729374024061</ele>
      </trkpt>
      <trkpt lat="40.431349832" lon="-3.692087075">
        <ele>686.9237012716022</ele>
      </trkpt>
      <trkpt lat="40.430701822" lon="-3.692440322">
        <ele>685.0298634533176</ele>
      </trkpt>
      <trkpt lat="40.430054974" lon="-3.693106836">
        <ele>687.5231754289244</ele>
      </trkpt>
      <trkpt lat="40.429378607" lon="-3.693805339">
        <ele>685.677058648831</ele>
      </trkpt>
      <trkpt lat="40.428787041" lon="-3.694468577">
        <ele>686.3574955592703</ele>
      </trkpt>
      <trkpt lat="40.428131214" lon="-3.695171871">
        <ele>685.1941899622317</ele>
      </trkpt>
      <trkpt lat="40.427884143" lon="-3.695427595">
        <ele>683.1391640102028</ele>
      </trkpt>
      <trkpt lat="40.427714557" lon="-3.695723445">
        <ele>681.2984315041685</ele>
      </trkpt>
      <trkpt lat="40.427689005" lon="-3.695936195">
        <ele>681.1234677881935</ele>
      </trkpt>
      <trkpt lat="40.42771785" lon="-3.696217487">
        <ele>681.5608445974361</ele>
      </trkpt>
      <trkpt lat="40.427788152" lon="-3.696524787">
        <ele>681.9723264119359</ele>
      </trkpt>
      <trkpt lat="40.42796451" lon="-3.697489427">
        <ele>685.4325798567392</ele>
      </trkpt>
      <trkpt lat="40.428176685" lon="-3.698498684">
        <ele>686.1771402773454</ele>
      </trkpt>
      <trkpt lat="40.428273684" lon="-3.698963488">
        <ele>684.0538820960694</ele>
      </trkpt>
      <trkpt lat="40.428341128" lon="-3.699347539">
        <ele>682.8427583791538</ele>
      </trkpt>
      <trkpt lat="40.428496962" lon="-3.700044553">
        <ele>686.8847410563561</ele>
      </trkpt>
      <trkpt lat="40.428827083" lon="-3.701629828">
        <ele>683.1209557717444</ele>
      </trkpt>
      <trkpt lat="40.429011362" lon="-3.70241045">
        <ele>680.3791142728139</ele>
      </trkpt>
      <trkpt lat="40.429060683" lon="-3.702920008">
        <ele>681.1782743336627</ele>
      </trkpt>
      <trkpt lat="40.429301523" lon="-3.704296755">
        <ele>685.1814731434692</ele>
      </trkpt>
      <trkpt lat="40.429460082" lon="-3.70511723">
        <ele>686.0603956092473</ele>
      </trkpt>
      <trkpt lat="40.429415139" lon="-3.705433304">
        <ele>685.4608804996926</ele>
      </trkpt>
      <trkpt lat="40.429320065" lon="-3.705632587">
        <ele>684.9769375377346</ele>
      </trkpt>
      <trkpt lat="40.429190477" lon="-3.705927682">
        <ele>683.8088619821991</ele>
      </trkpt>
      <trkpt lat="40.428667902" lon="-3.70601023">
        <ele>676.2506300548098</ele>
      </trkpt>
      <trkpt lat="40.427731898" lon="-3.706269276">
        <ele>671.5834754379083</ele>
      </trkpt>
      <trkpt lat="40.426988654" lon="-3.70645815">
        <ele>668.1161474519664</ele>
      </trkpt>
      <trkpt lat="40.426011697" lon="-3.707089516">
        <ele>664.4008331709431</ele>
      </trkpt>
      <trkpt lat="40.425445145" lon="-3.707317601">
        <ele>663.7273593050436</ele>
      </trkpt>
      <trkpt lat="40.424641728" lon="-3.707412815">
        <ele>662.0537519412597</ele>
      </trkpt>
      <trkpt lat="40.423671495" lon="-3.707456">
        <ele>663.4947094453968</ele>
      </trkpt>
      <trkpt lat="40.423148566" lon="-3.707499158">
        <ele>667.6848257279004</ele>
      </trkpt>
      <trkpt lat="40.421866344" lon="-3.707764462">
        <ele>675.5208637995652</ele>
      </trkpt>
      <trkpt lat="40.421604252" lon="-3.707828538">
        <ele>678.4572492021399</ele>
      </trkpt>
      <trkpt lat="40.421381175" lon="-3.707509562">
        <ele>679.8696404799512</ele>
      </trkpt>
      <trkpt lat="40.421034061" lon="-3.707011031">
        <ele>680.0720482189336</ele>
      </trkpt>
      <trkpt lat="40.420736769" lon="-3.706622137">
        <ele>677.7136844620405</ele>
      </trkpt>
      <trkpt lat="40.420435789" lon="-3.706027975">
        <ele>676.4231730967219</ele>
      </trkpt>
      <trkpt lat="40.420329192" lon="-3.705858863">
        <ele>677.2857412042374</ele>
      </trkpt>
      <trkpt lat="40.420329192" lon="-3.705858863">
        <ele>677.2857412042374</ele>
      </trkpt>
      <trkpt lat="40.420291452009096" lon="-3.7052703066649526">
        <ele>683.873132387431</ele>
      </trkpt>
      <trkpt lat="40.420253712018194" lon="-3.7046817503299057">
        <ele>685.043675713242</ele>
      </trkpt>
      <trkpt lat="40.4202159720273" lon="-3.7040931939948583">
        <ele>683.0689770003786</ele>
      </trkpt>
      <trkpt lat="40.4201782320364" lon="-3.703504637659811">
        <ele>683.7649278101505</ele>
      </trkpt>
      <trkpt lat="40.4201404920455" lon="-3.7029160813247635">
        <ele>687.5957563951943</ele>
      </trkpt>
      <trkpt lat="40.420102752054596" lon="-3.7023275249897165">
        <ele>693.3818266365968</ele>
      </trkpt>
      <trkpt lat="40.420089551446154" lon="-3.702121661089336">
        <ele>694.9097247702547</ele>
      </trkpt>
      <trkpt lat="40.419990763" lon="-3.70168724">
        <ele>690.7213162438225</ele>
      </trkpt>
      <trkpt lat="40.419990763" lon="-3.70168724">
        <ele>690.7213162438225</ele>
      </trkpt>
      <trkpt lat="40.419990763" lon="-3.70168724">
        <ele>690.7213162438225</ele>
      </trkpt>
      <trkpt lat="40.41986160949813" lon="-3.7015194063804415">
        <ele>686.186132074263</ele>
      </trkpt>
      <trkpt lat="40.41986160949813" lon="-3.7015194063804415">
        <ele>686.186132074263</ele>
      </trkpt>
      <trkpt lat="40.41945150727507" lon="-3.701761642862029">
        <ele>682.3652108630174</ele>
      </trkpt>
      <trkpt lat="40.41904140505201" lon="-3.702003879343616">
        <ele>677.9586007112878</ele>
      </trkpt>
      <trkpt lat="40.418850126267245" lon="-3.702116862637098">
        <ele>677.3273909562741</ele>
      </trkpt>
      <trkpt lat="40.418850126267245" lon="-3.702116862637098">
        <ele>677.3273909562741</ele>
      </trkpt>
      <trkpt lat="40.418438103369674" lon="-3.702353405620512">
        <ele>673.5241895952737</ele>
      </trkpt>
      <trkpt lat="40.418026080472096" lon="-3.7025899486039258">
        <ele>667.6818848913736</ele>
      </trkpt>
      <trkpt lat="40.41774632894416" lon="-3.7027505543892403">
        <ele>666.8712885708876</ele>
      </trkpt>
      <trkpt lat="40.41774632894416" lon="-3.7027505543892403">
        <ele>666.8712885708876</ele>
      </trkpt>
      <trkpt lat="40.417334788441266" lon="-3.7029885380944196">
        <ele>662.5979638654497</ele>
      </trkpt>
      <trkpt lat="40.417081166296015" lon="-3.7031352015149537">
        <ele>659.9789019956055</ele>
      </trkpt>
      <trkpt lat="40.41703280107299" lon="-3.703225952943626">
        <ele>659.273345166651</ele>
      </trkpt>
      <trkpt lat="40.41703280107299" lon="-3.703225952943626">
        <ele>659.273345166651</ele>
      </trkpt>
      <trkpt lat="40.41703280107299" lon="-3.703225952943626">
        <ele>659.273345166651</ele>
      </trkpt>
      <trkpt lat="40.41687388652423" lon="-3.703466444227928">
        <ele>659.932993975829</ele>
      </trkpt>
      <trkpt lat="40.41687388652423" lon="-3.703466444227928">
        <ele>659.932993975829</ele>
      </trkpt>
      <trkpt lat="40.41680479312507" lon="-3.7038067620831328">
        <ele>661.7942605570114</ele>
      </trkpt>
      <trkpt lat="40.41663205927617" lon="-3.7038158371362613">
        <ele>662.6197825001091</ele>
      </trkpt>
      <trkpt lat="40.41663205927617" lon="-3.7038158371362613">
        <ele>662.6197825001091</ele>
      </trkpt>
      <trkpt lat="40.4166892488318" lon="-3.703230023890943">
        <ele>661.4090264609089</ele>
      </trkpt>
      <trkpt lat="40.41674643838743" lon="-3.7026442106456243">
        <ele>663.8635407794816</ele>
      </trkpt>
      <trkpt lat="40.4167578333865" lon="-3.7025274875602463">
        <ele>664.3585647599307</ele>
      </trkpt>
      <trkpt lat="40.4167578333865" lon="-3.7025274875602463">
        <ele>664.3585647599307</ele>
      </trkpt>
      <trkpt lat="40.4167578333865" lon="-3.7025274875602463">
        <ele>664.3585647599307</ele>
      </trkpt>
      <trkpt lat="40.416726694056955" lon="-3.701938296258542">
        <ele>666.1693187351115</ele>
      </trkpt>
      <trkpt lat="40.41669555472742" lon="-3.7013491049568374">
        <ele>669.5135340597291</ele>
      </trkpt>
      <trkpt lat="40.416664415397875" lon="-3.700759913655133">
        <ele>673.2022407530782</ele>
      </trkpt>
      <trkpt lat="40.41663327606834" lon="-3.7001707223534286">
        <ele>674.3014916624419</ele>
      </trkpt>
      <trkpt lat="40.416602136738796" lon="-3.699581531051724">
        <ele>674.2698299643464</ele>
      </trkpt>
      <trkpt lat="40.41657099740926" lon="-3.6989923397500197">
        <ele>670.0755071779727</ele>
      </trkpt>
      <trkpt lat="40.41656400595693" lon="-3.6988600535717637">
        <ele>669.6528493232565</ele>
      </trkpt>
      <trkpt lat="40.41641634806259" lon="-3.6983021976689523">
        <ele>670.4206125759285</ele>
      </trkpt>
      <trkpt lat="40.416402553068735" lon="-3.698250079773146">
        <ele>670.6669088678561</ele>
      </trkpt>
      <trkpt lat="40.416402553068735" lon="-3.698250079773146">
        <ele>670.6669088678561</ele>
      </trkpt>
      <trkpt lat="40.41625123198485" lon="-3.6976939226581713">
        <ele>670.5927891154322</ele>
      </trkpt>
      <trkpt lat="40.41609991090097" lon="-3.697137765543196">
        <ele>665.4477338204557</ele>
      </trkpt>
      <trkpt lat="40.415948589817084" lon="-3.6965816084282213">
        <ele>659.4114155970096</ele>
      </trkpt>
      <trkpt lat="40.4157972687332" lon="-3.6960254513132464">
        <ele>660.6546989367788</ele>
      </trkpt>
      <trkpt lat="40.41575061987794" lon="-3.6958540006991427">
        <ele>660.8229030811484</ele>
      </trkpt>
      <trkpt lat="40.41575061987794" lon="-3.6958540006991427">
        <ele>660.8229030811484</ele>
      </trkpt>
      <trkpt lat="40.41575061987794" lon="-3.6958540006991427">
        <ele>660.8229030811484</ele>
      </trkpt>
      <trkpt lat="40.41557545202042" lon="-3.6953100568174992">
        <ele>657.0569578229965</ele>
      </trkpt>
      <trkpt lat="40.41551691319927" lon="-3.6951282778424286">
        <ele>656.1014793915707</ele>
      </trkpt>
      <trkpt lat="40.41533141910523" lon="-3.6947203338037298">
        <ele>653.2501191466714</ele>
      </trkpt>
      <trkpt lat="40.41533141910523" lon="-3.6947203338037298">
        <ele>653.2501191466714</ele>
      </trkpt>
      <trkpt lat="40.41533141910523" lon="-3.6947203338037298">
        <ele>653.2501191466714</ele>
      </trkpt>
      <trkpt lat="40.4150963160229" lon="-3.6943520508712595">
        <ele>646.9912744647381</ele>
      </trkpt>
      <trkpt lat="40.4150963160229" lon="-3.6943520508712595">
        <ele>646.9912744647381</ele>
      </trkpt>
      <trkpt lat="40.415042393182205" lon="-3.6941962388611103">
        <ele>642.7541800950524</ele>
      </trkpt>
      <trkpt lat="40.415047311" lon="-3.69396062">
        <ele>639.2645592471016</ele>
      </trkpt>
      <trkpt lat="40.415047311" lon="-3.69396062">
        <ele>639.2645592471016</ele>
      </trkpt>
      <trkpt lat="40.415047311" lon="-3.69396062">
        <ele>639.2645592471016</ele>
      </trkpt>
      <trkpt lat="40.41508987629214" lon="-3.6936181131483465">
        <ele>638.6401183552301</ele>
      </trkpt>
      <trkpt lat="40.41517643229173" lon="-3.693491860005878">
        <ele>640.672880383512</ele>
      </trkpt>
      <trkpt lat="40.41517643229173" lon="-3.693491860005878">
        <ele>640.672880383512</ele>
      </trkpt>
      <trkpt lat="40.41517643229173" lon="-3.693491860005878">
        <ele>640.672880383512</ele>
      </trkpt>
      <trkpt lat="40.415622168439626" lon="-3.693569717334163">
        <ele>649.6357460650158</ele>
      </trkpt>
      <trkpt lat="40.41570459347932" lon="-3.693584114625935">
        <ele>649.4566374743104</ele>
      </trkpt>
      <trkpt lat="40.41576195984808" lon="-3.693464816473494">
        <ele>651.5844282336185</ele>
      </trkpt>
      <trkpt lat="40.41576195984808" lon="-3.693464816473494">
        <ele>651.5844282336185</ele>
      </trkpt>
      <trkpt lat="40.41576195984808" lon="-3.693464816473494">
        <ele>651.5844282336185</ele>
      </trkpt>
      <trkpt lat="40.41587284620285" lon="-3.6928924543862656">
        <ele>659.2101279978182</ele>
      </trkpt>
      <trkpt lat="40.41590734072233" lon="-3.692714404028237">
        <ele>661.8030126162344</ele>
      </trkpt>
      <trkpt lat="40.416110721530316" lon="-3.692343540916113">
        <ele>663.7430988364395</ele>
      </trkpt>
      <trkpt lat="40.416110721530316" lon="-3.692343540916113">
        <ele>663.7430988364395</ele>
      </trkpt>
      <trkpt lat="40.416362114549116" lon="-3.692238479901931">
        <ele>658.1581457823753</ele>
      </trkpt>
      <trkpt lat="40.416362114549116" lon="-3.692238479901931">
        <ele>658.1581457823753</ele>
      </trkpt>
      <trkpt lat="40.416607793183005" lon="-3.692298514766094">
        <ele>654.6304884140388</ele>
      </trkpt>
      <trkpt lat="40.416607793183005" lon="-3.692298514766094">
        <ele>654.6304884140388</ele>
      </trkpt>
      <trkpt lat="40.41680776350174" lon="-3.6925536629445332">
        <ele>653.4645103756387</ele>
      </trkpt>
      <trkpt lat="40.41680776350174" lon="-3.6925536629445332">
        <ele>653.4645103756387</ele>
      </trkpt>
      <trkpt lat="40.416922031988776" lon="-3.6930564549411997">
        <ele>647.6842205453671</ele>
      </trkpt>
      <trkpt lat="40.416922031988776" lon="-3.6930564549411997">
        <ele>647.6842205453671</ele>
      </trkpt>
      <trkpt lat="40.416922031988776" lon="-3.6930564549411997">
        <ele>647.6842205453671</ele>
      </trkpt>
      <trkpt lat="40.41697985582664" lon="-3.693405573032379">
        <ele>646.8059371579209</ele>
      </trkpt>
      <trkpt lat="40.41697985582664" lon="-3.693405573032379">
        <ele>646.8059371579209</ele>
      </trkpt>
      <trkpt lat="40.417424326477786" lon="-3.6933161013517304">
        <ele>649.3318511249969</ele>
      </trkpt>
      <trkpt lat="40.41786879712893" lon="-3.693226629671081">
        <ele>655.4852235033179</ele>
      </trkpt>
      <trkpt lat="40.41831326778008" lon="-3.6931371579904324">
        <ele>656.3923591976488</ele>
      </trkpt>
      <trkpt lat="40.418616012816074" lon="-3.693076215592754">
        <ele>652.2338059060755</ele>
      </trkpt>
      <trkpt lat="40.4190484688473" lon="-3.6929144028647576">
        <ele>653.9203917527458</ele>
      </trkpt>
      <trkpt lat="40.41948092487853" lon="-3.6927525901367613">
        <ele>651.5588231660387</ele>
      </trkpt>
      <trkpt lat="40.419913380909755" lon="-3.692590777408765">
        <ele>649.800146460394</ele>
      </trkpt>
      <trkpt lat="40.419941746" lon="-3.692580164">
        <ele>649.9858883271002</ele>
      </trkpt>
      <trkpt lat="40.419941746" lon="-3.692580164">
        <ele>649.9858883271002</ele>
      </trkpt>
      <trkpt lat="40.419941746" lon="-3.692580164">
        <ele>649.9858883271002</ele>
      </trkpt>
      <trkpt lat="40.42036698885415" lon="-3.692388173226596">
        <ele>656.4403525441396</ele>
      </trkpt>
      <trkpt lat="40.4207922317083" lon="-3.6921961824531917">
        <ele>661.6416215101037</ele>
      </trkpt>
      <trkpt lat="40.421217474562454" lon="-3.692004191679787">
        <ele>660.4511548777572</ele>
      </trkpt>
      <trkpt lat="40.4216427174166" lon="-3.6918122009063827">
        <ele>657.7061156681317</ele>
      </trkpt>
      <trkpt lat="40.42206796027075" lon="-3.6916202101329785">
        <ele>655.168890048797</ele>
      </trkpt>
      <trkpt lat="40.4224932031249" lon="-3.691428219359574">
        <ele>661.4850848561164</ele>
      </trkpt>
      <trkpt lat="40.42291844597905" lon="-3.69123622858617">
        <ele>668.2524048688829</ele>
      </trkpt>
      <trkpt lat="40.42334368883321" lon="-3.6910442378127657">
        <ele>669.4366923156415</ele>
      </trkpt>
      <trkpt lat="40.423768931687356" lon="-3.690852247039361">
        <ele>663.5921826310489</ele>
      </trkpt>
      <trkpt lat="40.424194174541505" lon="-3.6906602562659567">
        <ele>659.1259488754896</ele>
      </trkpt>
      <trkpt lat="40.42440502221888" lon="-3.690565061700653">
        <ele>657.1364420536179</ele>
      </trkpt>
    </trkseg>
  </trk>
</gpx>
