<?xml version="1.0" encoding="UTF-8"?>
<gpx xmlns="http://www.topografix.com/GPX/1/1" xmlns:xsi="http://www.w3.org/2001/XMLSchema-instance" xsi:schemaLocation="http://www.topografix.com/GPX/1/1 http://www.topografix.com/GPX/1/1/gpx.xsd" version="1.1" creator="gpx.py -- https://github.com/tkrajina/gpxpy">
  <trk>
    <name>Sample 8K Rolling Course</name>
    <trkseg>
      <trkpt lat="52.520900000000005" lon="13.405199999999999">
        <ele>34.0</ele>
      </trkpt>
      <trkpt lat="52.521806233736676" lon="13.405397228646311">
        <ele>34.0</ele>
      </trkpt>
      <trkpt lat="52.52271860393464" lon="13.405586220035575">
        <ele>34.0</ele>
      </trkpt>
      <trkpt lat="52.5236369175611" lon="13.405761736547953">
        <ele>34.0</ele>
      </trkpt>
      <trkpt lat="52.52456088883803" lon="13.40591891400011">
        <ele>34.0</ele>
      </trkpt>
      <trkpt lat="52.52549014370168" lon="13.406053396448925">
        <ele>34.0</ele>
      </trkpt>
      <trkpt lat="52.52642422563968" lon="13.406161456910098">
        <ele>34.0</ele>
      </trkpt>
      <trkpt lat="52.52736260281479" lon="13.406240100646054">
        <ele>34.0</ele>
      </trkpt>
      <trkpt lat="52.52830467636403" lon="13.406287148160715">
        <ele>34.0</ele>
      </trkpt>
      <trkpt lat="52.52924978974374" lon="13.406301295601049">
        <ele>34.0</ele>
      </trkpt>
      <trkpt lat="52.53019723897471" lon="13.406282150891446">
        <ele>34.0</ele>
      </trkpt>
      <trkpt lat="52.53114628362756" lon="13.406230244599522">
        <ele>34.0</ele>
      </trkpt>
      <trkpt lat="52.53209615837689" lon="13.406147015232213">
        <ele>34.0</ele>
      </trkpt>
      <trkpt lat="52.53304608494391" lon="13.406034769369658">
        <ele>34.0</ele>
      </trkpt>
      <trkpt lat="52.53399528424126" lon="13.405896617741707">
        <ele>34.0</ele>
      </trkpt>
      <trkpt lat="52.53494298853034" lon="13.405736389018598">
        <ele>36.2</ele>
      </trkpt>
      <trkpt lat="52.53588845340168" lon="13.405558523704956">
        <ele>38.4</ele>
      </trkpt>
      <trkpt lat="52.536830969391175" lon="13.405367951077709">
        <ele>40.6</ele>
      </trkpt>
      <trkpt lat="52.53776987305102" lon="13.405169952578389">
        <ele>42.8</ele>
      </trkpt>
      <trkpt lat="52.538704557302616" lon="13.404970015445707">
        <ele>45.0</ele>
      </trkpt>
      <trkpt lat="52.53963448090982" lon="13.404773680644766">
        <ele>47.2</ele>
      </trkpt>
      <trkpt lat="52.54055917692475" lon="13.404586389307308">
        <ele>49.4</ele>
      </trkpt>
      <trkpt lat="52.541478259974355" lon="13.404413331938722">
        <ele>51.6</ele>
      </trkpt>
      <trkpt lat="52.54239143227402" lon="13.404259304570772">
        <ele>53.8</ele>
      </trkpt>
      <trkpt lat="52.543298488274424" lon="13.404128575846599">
        <ele>56.0</ele>
      </trkpt>
      <trkpt lat="52.54419931786904" lon="13.404024768721522">
        <ele>58.2</ele>
      </trkpt>
      <trkpt lat="52.54509390811231" lon="13.403950760058128">
        <ele>60.4</ele>
      </trkpt>
      <trkpt lat="52.545982343421684" lon="13.403908600898243">
        <ele>62.6</ele>
      </trkpt>
      <trkpt lat="52.5468648042603" lon="13.403899459621295">
        <ele>64.8</ele>
      </trkpt>
      <trkpt lat="52.5477415643209" lon="13.403923589564402">
        <ele>67.0</ele>
      </trkpt>
      <trkpt lat="52.548612986254966" lon="13.403980322001495">
        <ele>66.5</ele>
      </trkpt>
      <trkpt lat="52.549479516013655" lon="13.404068084676085">
        <ele>65.7</ele>
      </trkpt>
      <trkpt lat="52.55034167588889" lon="13.404184445374057">
        <ele>64.7</ele>
      </trkpt>
      <trkpt lat="52.55120005636316" lon="13.404326179328915">
        <ele>63.7</ele>
      </trkpt>
      <trkpt lat="52.55205530689525" lon="13.404489358591476">
        <ele>62.8</ele>
      </trkpt>
      <trkpt lat="52.552908125785635" lon="13.404669460887229">
        <ele>62.0</ele>
      </trkpt>
      <trkpt lat="52.55375924927975" lon="13.404861494944559">
        <ele>61.5</ele>
      </trkpt>
      <trkpt lat="52.554609440079126" lon="13.405060138820538">
        <ele>61.2</ele>
      </trkpt>
      <trkpt lat="52.555459475439676" lon="13.405259887390784">
        <ele>61.3</ele>
      </trkpt>
      <trkpt lat="52.55631013504289" lon="13.40545520491593">
        <ele>61.7</ele>
      </trkpt>
      <trkpt lat="52.55716218882916" lon="13.405640678456539">
        <ele>62.4</ele>
      </trkpt>
      <trkpt lat="52.55801638498311" lon="13.405811167884806">
        <ele>63.3</ele>
      </trkpt>
      <trkpt lat="52.55887343825844" lon="13.405961948335674">
        <ele>64.3</ele>
      </trkpt>
      <trkpt lat="52.55973401882442" lon="13.40608884114956">
        <ele>65.3</ele>
      </trkpt>
      <trkpt lat="52.56059874180814" lon="13.406188329677782">
        <ele>66.2</ele>
      </trkpt>
      <trkpt lat="52.56146815769564" lon="13.40625765674135">
        <ele>66.8</ele>
      </trkpt>
      <trkpt lat="52.562342743741766" lon="13.406294901042127">
        <ele>67.2</ele>
      </trkpt>
      <trkpt lat="52.56322289652277" lon="13.406299030408814">
        <ele>67.2</ele>
      </trkpt>
      <trkpt lat="52.56410892574786" lon="13.406269930402052">
        <ele>66.9</ele>
      </trkpt>
      <trkpt lat="52.56500104942631" lon="13.406208407485954">
        <ele>66.4</ele>
      </trkpt>
      <trkpt lat="52.56589939046548" lon="13.406116166678121">
        <ele>63.4</ele>
      </trkpt>
      <trkpt lat="52.56680397475291" lon="13.405995764297584">
        <ele>60.4</ele>
      </trkpt>
      <trkpt lat="52.567714730752314" lon="13.405850537120156">
        <ele>57.4</ele>
      </trkpt>
      <trkpt lat="52.56863149061993" lon="13.405684509904573">
        <ele>54.4</ele>
      </trkpt>
      <trkpt lat="52.569553992823614" lon="13.405502283852195">
        <ele>51.4</ele>
      </trkpt>
      <trkpt lat="52.570481886224016" lon="13.405308909091447">
        <ele>48.4</ele>
      </trkpt>
      <trkpt lat="52.57141473555395" lon="13.405109744720889">
        <ele>45.4</ele>
      </trkpt>
      <trkpt lat="52.57235202821061" lon="13.40491031028965">
        <ele>42.4</ele>
      </trkpt>
      <trkpt lat="52.57329318225456" lon="13.404716132831192">
        <ele>39.4</ele>
      </trkpt>
      <trkpt lat="52.57423755549071" lon="13.404532593689673">
        <ele>36.4</ele>
      </trkpt>
      <trkpt lat="52.57518445548955" lon="13.404364779383858">
        <ele>33.4</ele>
      </trkpt>
      <trkpt lat="52.57613315039228" lon="13.404217340641699">
        <ele>30.4</ele>
      </trkpt>
      <trkpt lat="52.57708288033123" lon="13.404094363512213">
        <ele>27.4</ele>
      </trkpt>
      <trkpt lat="52.57803286928735" lon="13.403999256126614">
        <ele>24.4</ele>
      </trkpt>
      <trkpt lat="52.578982337199676" lon="13.403934654246939">
        <ele>21.4</ele>
      </trkpt>
      <trkpt lat="52.579930512138" lon="13.403902348219763">
        <ele>21.4</ele>
      </trkpt>
      <trkpt lat="52.580876642348514" lon="13.40390323335936">
        <ele>21.4</ele>
      </trkpt>
      <trkpt lat="52.58182000798471" lon="13.403937285135383">
        <ele>21.4</ele>
      </trkpt>
      <trkpt lat="52.582759932340345" lon="13.404003559852681">
        <ele>21.4</ele>
      </trkpt>
      <trkpt lat="52.583695792409195" lon="13.404100220804432">
        <ele>21.4</ele>
      </trkpt>
      <trkpt lat="52.58462702860688" lon="13.404224589173785">
        <ele>21.4</ele>
      </trkpt>
      <trkpt lat="52.58555315350299" lon="13.40437321827335">
        <ele>21.4</ele>
      </trkpt>
      <trkpt lat="52.58647375942726" lon="13.404541989065097">
        <ele>21.4</ele>
      </trkpt>
      <trkpt lat="52.58738852483112" lon="13.404726224313464">
        <ele>21.4</ele>
      </trkpt>
      <trkpt lat="52.58829721930539" lon="13.404920818208103">
        <ele>21.4</ele>
      </trkpt>
      <trkpt lat="52.5891997071757" lon="13.405120377863938">
        <ele>21.4</ele>
      </trkpt>
      <trkpt lat="52.59009594961968" lon="13.40531937277709">
        <ele>21.4</ele>
      </trkpt>
      <trkpt lat="52.590986005272725" lon="13.405512288094695">
        <ele>21.4</ele>
      </trkpt>
      <trkpt lat="52.59187002931304" lon="13.405693777450985">
        <ele>21.4</ele>
      </trkpt>
      <trkpt lat="52.59274827104014" lon="13.405858811133992">
        <ele>21.4</ele>
      </trkpt>
    </trkseg>
  </trk>
</gpx>